              TDR Cartesian                         TDR Cartesian  
    -----------------------------------       --------------------------------
     X    =      -10036588.88                 X    =        -3059152.29
     Y    =       19516674.26  feet           Y    =         5948682.32  meter
     Z    =        3674173.91                 Z    =         1119888.21
     XDOT =     -14140.353536                 XDOT =       -4309.979758
     YDOT =      -3608.464666  feet/sec       YDOT =       -1099.860030  meter/sec
     ZDOT =     -19289.833915                 ZDOT =       -5879.541377
  
  
    The mean element set is posted at the UTC for which position is
    just north of the next ascending node relative to the above
    vector time
 
 
    TWO LINE MEAN ELEMENT SET
  
    ISS
    1 25544U 98067A   16113.53436167  .00016717  00000-0  10270-3 0  9048
    2 25544  51.6438 335.6382 0001687  46.6899 313.4394 15.54318716 36325
  
  
    Satellite: ISS
    Catalog Number: 25544
    Epoch time:      16113.53436167   =   yrday.fracday
    Element set:     904
    Inclination:       51.6438  deg
    RA of node:       335.6382  deg
    Eccentricity:     .0001687     
    Arg of perigee:    46.6899  deg
    Mean anomaly:     313.4394  deg
    Mean motion:   15.54318716  rev/day
    Decay rate:    1.67170E-04  rev/day^2
    Epoch rev:            3632
    Checksum:              327
 
 
    Coasting Arc #6 (Orbit 3647)
    ---------------------------------------
 
    Vector Time (GMT): 2016/114/12:00:00.000
    Vector Time (MET): N/A
    Weight (LBS)     : 945238.6
 
              M50 Cartesian                         M50 Keplerian  
    -----------------------------------       --------------------------------
     X    =        6087396.77                 A    =         6788464.97  meter
     Y    =       -2926283.78  meter          E    =           .0014791
     Z    =         605358.98                 I    =           51.48232
     XDOT =       1589.185397                 Wp   =           51.06142
     YDOT =       4557.641156  meter/sec      RA   =          330.23504  deg
     ZDOT =       5961.867518                 TA   =          315.48995
                                              MA   =          315.60867
                                              Ha   =            221.098  n.mi
                                              Hp   =            213.809
 
              M50 Cartesian                         J2K Cartesian  
    -----------------------------------       --------------------------------
     X    =       19971774.17                 X    =         6116726.14
     Y    =       -9600668.57  feet           Y    =        -2858046.44  meter
     Z    =        1986085.91                 Z    =          635002.00
     XDOT =       5213.862850                 XDOT =        1509.141843
     YDOT =      14952.890931  feet/sec       YDOT =        4574.965219  meter/sec
     ZDOT =      19559.932803                 ZDOT =        5969.392899
 
              TDR Cartesian                         TDR Cartesian  
    -----------------------------------       --------------------------------
     X    =       12126930.65                 X    =         3696288.46
     Y    =      -18532452.33  feet           Y    =        -5648691.47  meter
     Z    =        2115396.30                 Z    =          644772.79
     XDOT =      10731.988775                 XDOT =        3271.110179
     YDOT =       9290.204113  feet/sec       YDOT =        2831.654214  meter/sec
     ZDOT =      19591.709473                 ZDOT =        5971.553048
  
  
    The mean element set is posted at the UTC for which position is
    just north of the next ascending node relative to the above
    vector time
 
 
    TWO LINE MEAN ELEMENT SET
  
    ISS
    1 25544U 98067A   16114.56305163  .00016717  00000-0  10270-3 0  9054
    2 25544  51.6421 330.5081 0001637  48.1749 311.9544 15.54366537 36484
  
  
    Satellite: ISS
    Catalog Number: 25544
    Epoch time:      16114.56305163   =   yrday.fracday
    Element set:     905
    Inclination:       51.6421  deg
    RA of node:       330.5081  deg
    Eccentricity:     .0001637     
    Arg of perigee:    48.1749  deg
    Mean anomaly:     311.9544  deg
    Mean motion:   15.54366537  rev/day
    Decay rate:    1.67170E-04  rev/day^2
    Epoch rev:            3648
    Checksum:              302
 
 
    Coasting Arc #7 (Orbit 3662)
    ---------------------------------------
 
    Vector Time (GMT): 2016/115/12:00:00.000
    Vector Time (MET): N/A
    Weight (LBS)     : 945238.6
 
              M50 Cartesian                         M50 Keplerian  
    -----------------------------------       --------------------------------
     X    =       -6067464.10                 A    =         6786282.86  meter
     Y    =        1939785.09  meter          E    =           .0005913
     Z    =       -2339746.53                 I    =           51.44727
     XDOT =        328.528305                 Wp   =          118.58292
     YDOT =      -5447.343018  meter/sec      RA   =          325.24981  deg
     ZDOT =      -5381.238342                 TA   =           87.57721
                                              MA   =           87.50951
                                              Ha   =            221.057  n.mi
                                              Hp   =            213.849
 
              M50 Cartesian                         J2K Cartesian  
    -----------------------------------       --------------------------------
     X    =      -19906378.28                 X    =        -6077338.61
     Y    =        6364124.31  feet           Y    =         1871879.38  meter
     Z    =       -7676333.75                 Z    =        -2369245.37
     XDOT =       1077.848770                 XDOT =         415.557686
     YDOT =     -17871.860296  feet/sec       YDOT =       -5443.182754  meter/sec
     ZDOT =     -17654.981436                 ZDOT =       -5379.430845
 
              TDR Cartesian                         TDR Cartesian  
    -----------------------------------       --------------------------------
     X    =      -13440015.23                 X    =        -4096516.64
     Y    =       15941859.88  feet           Y    =         4859078.89  meter
     Z    =       -7804816.99                 Z    =        -2378908.22
     XDOT =      -7325.600337                 XDOT =       -2232.842983
     YDOT =     -14794.363752  feet/sec       YDOT =       -4509.322072  meter/sec
     ZDOT =     -17646.053464                 ZDOT =       -5378.517096
  
  
    The mean element set is posted at the UTC for which position is
    just north of the next ascending node relative to the above
    vector time
 
 
    TWO LINE MEAN ELEMENT SET
  
    ISS
    1 25544U 98067A   16115.52744295  .00016717  00000-0  10270-3 0  9065
    2 25544  51.6417 325.6994 0001515  47.0488 313.0791 15.54349714 36632
  
  
    Satellite: ISS
    Catalog Number: 25544
    Epoch time:      16115.52744295   =   yrday.fracday
    Element set:     906
    Inclination:       51.6417  deg
    RA of node:       325.6994  deg
    Eccentricity:     .0001515     
    Arg of perigee:    47.0488  deg
    Mean anomaly:     313.0791  deg
    Mean motion:   15.54349714  rev/day
    Decay rate:    1.67170E-04  rev/day^2
    Epoch rev:            3663
    Checksum:              321
 
 
    Coasting Arc #8 (Orbit 3678)
    ---------------------------------------
 
    Vector Time (GMT): 2016/116/12:00:00.000
    Vector Time (MET): N/A
    Weight (LBS)     : 945238.6
 
              M50 Cartesian                         M50 Keplerian  
    -----------------------------------       --------------------------------
     X    =        5581001.68                 A    =         6782471.63  meter
     Y    =        -722999.53  meter          E    =           .0012539
     Z    =        3775104.99                 I    =           51.40880
     XDOT =      -2063.789018                 Wp   =           91.44603
     YDOT =       6078.581359  meter/sec      RA   =          320.25194  deg
     ZDOT =       4202.789717                 TA   =          314.01161
                                              MA   =          314.11489
                                              Ha   =            220.977  n.mi
                                              Hp   =            213.824
 
              M50 Cartesian                         J2K Cartesian  
    -----------------------------------       --------------------------------
     X    =       18310372.98                 X    =         5570333.49
     Y    =       -2372045.69  feet           Y    =         -660648.64  meter
     Z    =       12385515.06                 Z    =         3802190.69
     XDOT =      -6770.961344                 XDOT =       -2152.023557
     YDOT =      19942.852227  feet/sec       YDOT =        6055.009419  meter/sec
     ZDOT =      13788.680175                 ZDOT =        4192.549748
 
              TDR Cartesian                         TDR Cartesian  
    -----------------------------------       --------------------------------
     X    =       13980548.87                 X    =         4261271.30
     Y    =      -11937743.23  feet           Y    =        -3638624.14  meter
     Z    =       12503274.88                 Z    =         3810998.18
     XDOT =       4268.767792                 XDOT =        1301.120423
     YDOT =      19435.554773  feet/sec       YDOT =        5923.957095  meter/sec
     ZDOT =      13743.012839                 ZDOT =        4188.870313
  
  
    The mean element set is posted at the UTC for which position is
    just north of the next ascending node relative to the above
    vector time
 
 
    TWO LINE MEAN ELEMENT SET
  
    ISS
    1 25544U 98067A   16116.55611721  .00016717  00000-0  10270-3 0  9077
    2 25544  51.6416 320.5683 0001607  47.8988 312.2301 15.54366443 36798
  
